{
  "norad_id": 67612,
  "name": "STARLINK-36407",
  "history": [
    {
      "epoch": "2026-04-14T03:35:12.082560Z",
      "apogee_km": 466.5953134350393,
      "perigee_km": 464.503198546583,
      "latitude_deg": -6.381762117497862e-05,
      "longitude_deg": -86.19284942813053,
      "height_km": 468.7088815970824,
      "semi_major_axis_km": 6843.68625599081,
      "eccentricity": 0.00015285,
      "inclination_deg": 97.2844,
      "raan_deg": 169.9375,
      "arg_perigee_deg": 92.7407,
      "mean_anomaly_deg": 267.401,
      "mean_motion_rev_day": 15.33442956
    },
    {
      "epoch": "2026-04-15T15:36:27.374112Z",
      "apogee_km": 466.17926459859973,
      "perigee_km": 464.8871796606609,
      "latitude_deg": 8.432732033002125e-05,
      "longitude_deg": 93.49419314064144,
      "height_km": 468.7180844890731,
      "semi_major_axis_km": 6843.67022212963,
      "eccentricity": 9.44e-05,
      "inclination_deg": 97.2835,
      "raan_deg": 171.4176,
      "arg_perigee_deg": 96.601,
      "mean_anomaly_deg": 263.5341,
      "mean_motion_rev_day": 15.33448345
    },
    {
      "epoch": "2026-04-16T04:08:11.914368Z",
      "apogee_km": 466.46102836566934,
      "perigee_km": 464.6360911743013,
      "latitude_deg": 7.678466868600883e-05,
      "longitude_deg": -94.44163862401987,
      "height_km": 468.70926236451766,
      "semi_major_axis_km": 6843.685559769985,
      "eccentricity": 0.00013333,
      "inclination_deg": 97.2857,
      "raan_deg": 171.9319,
      "arg_perigee_deg": 93.193,
      "mean_anomaly_deg": 266.9466,
      "mean_motion_rev_day": 15.3344319
    },
    {
      "epoch": "2026-04-17T22:25:20.540928Z",
      "apogee_km": 466.6075854779474,
      "perigee_km": 464.5849885423031,
      "latitude_deg": 3.247902316206903e-06,
      "longitude_deg": -8.72738383520147,
      "height_km": 468.690477933358,
      "semi_major_axis_km": 6843.7332870101245,
      "eccentricity": 0.00014777,
      "inclination_deg": 97.286,
      "raan_deg": 173.6687,
      "arg_perigee_deg": 89.127,
      "mean_anomaly_deg": 271.0142,
      "mean_motion_rev_day": 15.33427149
    },
    {
      "epoch": "2026-04-18T10:57:05.366304Z",
      "apogee_km": 466.4831976638734,
      "perigee_km": 464.6657816406814,
      "latitude_deg": 3.939324686927748e-05,
      "longitude_deg": 163.33578664287387,
      "height_km": 468.73418226634027,
      "semi_major_axis_km": 6843.711489652277,
      "eccentricity": 0.00013278,
      "inclination_deg": 97.2852,
      "raan_deg": 174.1832,
      "arg_perigee_deg": 93.1414,
      "mean_anomaly_deg": 266.9981,
      "mean_motion_rev_day": 15.33434475
    },
    {
      "epoch": "2026-04-19T10:26:35.317536Z",
      "apogee_km": 467.24602064508963,
      "perigee_km": 463.6527271836021,
      "latitude_deg": -5.0423774654411255e-06,
      "longitude_deg": 170.9601270280773,
      "height_km": 468.79061330243866,
      "semi_major_axis_km": 6843.586373914345,
      "eccentricity": 0.00026253,
      "inclination_deg": 97.2829,
      "raan_deg": 175.1471,
      "arg_perigee_deg": 97.4647,
      "mean_anomaly_deg": 262.6894,
      "mean_motion_rev_day": 15.33476527
    }
  ]
}